#dP2023  1 12  0  0  0.00000000      96 __u+U ITR00 EXT  IAC
## 2244 345600.00000000   900.00000000 59956 0.0000000000000
+  118   C06C07C08C09C10C11C12C13C14C16C19C20C21C22C23C24C25
+        C26C27C28C29C30C32C33C34C35C36C37C38C39C40C41C42C43
+        C44C45C46E01E02E03E04E05E07E08E09E10E11E12E13E14E15
+        E18E19E21E24E25E26E27E30E31E33E34E36G01G02G03G04G05
+        G06G07G08G09G10G11G12G13G14G15G16G17G18G19G20G21G23
+        G24G25G26G27G29G30G31G32J02J03J04R01R02R03R04R05R07
+        R08R09R11R12R13R14R15R16R17R18R19R20R21R22R24R25  0
++        12 10 10 11 10  9 10 11  9 11  7  9  8 10  9 17  9
++         9 10  9 10  8  8  8  8  8  9  8  9  9 11  9  8  8
++         9  9 10  7  6  7  8  7  7  7  8  8  9  9  7  7  6
++         8  7  7  7  7  7  7  8  7  8  6  6  8  7  7  7  8
++         6  8  7  8  7  7  7  7  7  7  8  8  8  8  6  8  8
++         7  8  7  7  8  8  8  7 10 10 10 10 10  9  9  8 10
++        10 10  8  7  8  7  8  9  7  7  8  9  8  8  7  8  0
%c M  cc GPS ccc cccc cccc cccc cccc ccccc ccccc ccccc ccccc
%c cc cc ccc ccc cccc cccc cccc cccc ccccc ccccc ccccc ccccc
%f  0.0000000  0.000000000  0.00000000000  0.000000000000000
%f  0.0000000  0.000000000  0.00000000000  0.000000000000000
%i    0    0    0    0      0      0      0      0         0
%i    0    0    0    0      0      0      0      0         0
/* IAC                                ULTRA-RAPID PREDICTION
/* S/V CLOCKS ARE ALIGNED TO GNSS TIME                      
/* G:C1WC2W R:C1PC2P E:C1XC5X C:C2IC6I J:C1CC2S             
/* PCV:IGS20_2239 OL/AL:FES2004  NONE     YN ORB:CoN CLK:CoN
*  2023 01 12  1 30  0.00000000
PC06  -1549.599379  28362.547080  31236.008949   -201.950970
PC07 -15825.212102  30717.833228 -24197.511914     28.827853
PC08  -8348.942143  41055.782808  -3871.094164    527.442491
PC09   5771.344207  32145.739416  27330.279888    225.019571
PC10 -10229.537183  30635.680906 -27028.555432     34.004768
PC11 -14778.854230 -19812.707595  13046.544501   -183.082670
PC12   3090.708680 -15864.273883  22793.862940    392.894235
PC13  -4425.919412  41765.909113   1119.321506    181.118583
PC14  -6311.248579 -14513.519954 -22965.228205    359.023241
PC16  -3531.017347  26816.117228  32607.117943     83.791048
PC19  15612.998641   8218.963107  21640.723091   -897.511561
PC20  -2299.542040  17888.965466  21312.395162    770.827505
PC21  20216.069118 -17447.724835  -8059.278533   -917.571055
PC22  25391.152474  -6642.723903   9453.138109   -690.531075
PC23 -16329.419895    710.707754  22613.263211   -871.331552
PC24    540.272051 -27918.302026     83.544730   -552.971863
PC25 -12329.018330 -18314.339823  17069.594482     54.070655
PC26  10583.221556 -21201.380243 -14787.494264    -63.033265
PC27 -11967.193631  11083.579853 -22656.993230     80.213420
PC28 -23808.056917  -3152.764883 -14205.759160     57.874406
PC29  22631.775900  15881.672743  -3806.647375     66.221373
PC30   6946.318326  19196.099220 -19040.612650      1.278289
PC32 -20126.005950  17604.952852   8009.959023   -653.034063
PC33 -15606.706396  -8193.527878 -21632.796922   -881.882449
PC34  -8123.530098 -19392.116035  18329.727069     81.662770
PC35  24431.740998   3402.770596  13082.886298    287.715645
PC36  11590.792995  19144.836771 -16646.425701   -701.154388
PC37 -11738.854350  19787.118490  15777.163727   -850.567904
PC38 -12391.477629  38493.276410 -11597.586032     51.336249
PC39  -8666.875204  23179.266615  34179.703937     -1.382678
PC40 -23218.265154  25244.319024 -24668.651957    -12.317310
PC41 -25286.127271   6320.704630  -9917.704804   -483.598528
PC42   3586.082353 -18271.544468 -20737.607438   -901.346036
PC43 -22163.855035 -16312.519332   4542.792114      1.615692
PC44  11860.121975 -11456.744756  22508.157528    174.415032
PC45  16212.554526  -1215.320330 -22689.474583    -46.399185
PC46    706.632331  27808.852953  -1893.129083    -25.818260
PE01  20312.574841 -18993.748692 -10163.476448   -593.559790
PE02 -20205.254764  19243.636397   9836.020630     14.158591
PE03 -23503.676672   9775.189264  15105.984721   -639.026560
PE04   4329.569088 -16739.611148 -24023.526741    -34.213827
PE05 -29291.009432  -3106.705421  -2910.311550   -106.067270
PE07  17848.677552  14013.330750  19004.811418    -14.463531
PE08  -4401.441536  16595.048905  24109.375958    -17.969158
PE09 -17705.338423 -13936.327965 -19201.474376   -796.853160
PE10  -9580.846298 -27152.596472   6873.549877   -504.431784
PE11 -15906.906413 -24669.409680  -3758.220116    420.117743
PE12  -2167.600082 -25216.484849  15340.221700   -380.862309
PE13  15516.093014  25049.048312   2872.675738    429.978349
PE14 -30144.947582  -5020.879305    100.179499    110.865345
PE15   2026.755555  25065.681057 -15605.883925    694.763805
PE18  21709.915149  11495.741495  -8933.262475   -519.889483
PE19  25300.080183  -8092.901053 -13067.455157  -3509.795740
PE21  19336.811629  -1998.157801 -22329.481561   -505.728202
PE24  -6555.573426 -18281.574457  22330.121957  -1052.999842
PE25 -19212.288985   1639.940447  22455.524923   -596.985738
PE26  19777.066350   9482.601061  19887.773007  -1854.094754
PE27   7333.200516  17500.631779 -22714.481279   -485.516100
PE30  -9473.553170  26517.784242  -9098.780459  -1152.989571
PE31   8881.843897 -26519.344099   9718.883631   -513.080684
PE33  12582.136517 -10271.540578  24755.713314   -454.388142
PE34 -12456.287360  10463.842842 -24726.321220    -24.369944
PE36 -19753.973603 -10363.712676 -19442.321529   -489.090208
PG01  16303.669946   4115.887091  20339.695341    225.572906
PG02 -15810.796130    788.064020 -20658.476247   -627.848799
PG03  19064.744612  -6621.237087  17087.889872   -372.676767
PG04  26122.198232     43.083106  -5116.387507    -50.536447
PG05 -12863.148405  -8139.417976 -21935.166899   -111.639286
PG06  -4492.518056 -24653.358840   8735.870473    556.985091
PG07  10961.833960 -11725.563468 -20650.952858    260.264008
PG08  25060.398508   6661.597353  -6670.799040   -103.129362
PG09  20393.018304  -8738.741006 -14714.988919   -238.019501
PG10  -9766.777184  23125.720822   8338.071632    -20.040792
PG11 -12132.524925 -23257.072694  -4275.886906    -76.692515
PG12 -19229.833016   4091.597212  17533.018075   -327.012528
PG13 -19849.490630 -13321.974143 -11952.756593    457.834813
PG14  12368.377451 -22689.270393   5857.354471    -51.163884
PG15 -25588.615467  -4240.921562  -6803.746888      3.842881
PG16   9550.094236  12061.169343 -21908.767247   -524.103907
PG17   8107.550630 -13579.943471  21790.445288    692.718698
PG18  -8706.260339  14778.579631 -20235.777984    -95.464257
PG19  -4803.337383 -15483.090323  20862.592542    262.901617
PG20  -5161.949802 -18813.715618 -18091.588865    457.638372
PG21  18937.953252  11618.538401  15721.056505    153.376953
PG23 -16526.468091  20461.169307  -3087.786309      2.221023
PG24 -18664.092415  -7399.052556  17242.092906    -25.965102
PG25 -19448.569178  13758.407447  11132.243889    410.491166
PG26    452.512042  21199.293788 -15890.163791    240.150062
PG27  17481.957538  12742.426390 -15909.778580    129.318324
PG29 -22685.284218   4812.537796 -13062.350614   -579.859189
PG30   2182.213423 -21948.458666 -14519.009062   -533.484557
PG31   5347.430705  24867.849501   6597.905215   -206.062333
PG32  -3946.903780  14939.213330  21748.747645   -361.028239
PJ02 -33931.421680  24458.750717  10591.617286     -0.548752
PJ03 -21607.157022  20175.885105 -25423.365363     -0.077385
PJ04 -26315.823167  33111.134572   8331.154862    118.392197
PR01 -19327.994119  12539.106037  10957.779950     21.098936
PR02  -2234.729721  11821.186098  22525.060101    -23.324083
PR03  15503.130527   4688.259433  19772.145635     70.707046
PR04  24274.170159  -4850.688872   6219.690082    171.988045
PR05  19961.870047 -11698.067502 -10762.670860    106.030281
PR07 -16069.144525  -4271.787411 -19285.444121     47.824408
PR08 -24253.877335   5082.789389  -5917.638139    -68.972578
PR09   1353.558067 -24693.936557   6106.529463     98.062316
PR11 -11480.618718   3048.668119  22580.411139      7.217549
PR12  -9722.884041  20564.023976  11540.644291     24.252356
PR13  -2494.289572  24989.862048  -4468.198506    -30.863857
PR14   7013.107178  14428.250578 -19830.769219     24.210759
PR15  11737.475329  -4100.884442 -22259.948082     91.754022
PR16   9563.452717 -20442.517436 -11858.616425      9.846889
PR17  18995.735629  16995.913614     85.908954    594.966785
PR18  18683.951367   7512.132595  15712.504760     61.339711
PR19   9873.462557  -4695.021388  23052.374243   -217.917994
PR20  -7382.094405 -17609.266955  16904.604118    -85.691333
PR21 -19363.689983 -16530.581656  -1756.053791   -364.737211
PR22 -18300.826738  -7346.487552 -16139.292145     66.225656
PR24   8267.159232  17828.677397 -16232.397343    139.007673
PR25 -18039.667260 -18045.913174    324.285679     51.355839
EOF
